{"type": "FeatureCollection", "features": [ {"type": "Feature", "properties": {"norad_id": 54234, "name": "NOAA 21 (JPSS-2)", "group": "weather", "lat": 3.103229886363525, "lon": 105.37370173717133, "alt_km": 830.7079995874637, "timestamp": "2025-12-14T14:39:29.019164+00:00", "meta": {"OBJECT_NAME": "NOAA 21 (JPSS-2)", "OBJECT_ID": "2022-150A", "EPOCH": "2025-12-13T22:36:11.888928", "MEAN_MOTION": 14.19524764, "ECCENTRICITY": 0.00021798, "INCLINATION": 98.7463, "RA_OF_ASC_NODE": 284.235, "ARG_OF_PERICENTER": 35.9218, "MEAN_ANOMALY": 324.2104, "EPHEMERIS_TYPE": 0, "CLASSIFICATION_TYPE": "U", "NORAD_CAT_ID": 54234, "ELEMENT_SET_NO": 999, "REV_AT_EPOCH": 16026, "BSTAR": 9.301655e-05, "MEAN_MOTION_DOT": 1.52e-06, "MEAN_MOTION_DDOT": 0}, "tle": {"line1": "1 54234U 22150A   25347.94180427  .00000152  00000+0  93017-4 0  9995", "line2": "2 54234  98.7463 284.2350 0002179  35.9218 324.2104 14.19524764160262"}}, "geometry": {"type": "Point", "coordinates": [105.37370173717133, 3.103229886363525]}}, {"type": "Feature", "properties": {"norad_id": 54743, "name": "METEOSAT-12 (MTG-I1)", "group": "weather", "lat": -0.6903957105662072, "lon": -56.869676129877305, "alt_km": 35781.550398544896, "timestamp": "2025-12-14T14:39:29.019214+00:00", "meta": {"OBJECT_NAME": "METEOSAT-12 (MTG-I1)", "OBJECT_ID": "2022-170C", "EPOCH": "2025-12-13T22:23:38.652000", "MEAN_MOTION": 1.00269356, "ECCENTRICITY": 0.00016539, "INCLINATION": 0.6882, "RA_OF_ASC_NODE": 23.8293, "ARG_OF_PERICENTER": 238.2122, "MEAN_ANOMALY": 156.4626, "EPHEMERIS_TYPE": 0, "CLASSIFICATION_TYPE": "U", "NORAD_CAT_ID": 54743, "ELEMENT_SET_NO": 999, "REV_AT_EPOCH": 1112, "BSTAR": 0, "MEAN_MOTION_DOT": 9e-08, "MEAN_MOTION_DDOT": 0}, "tle": {"line1": "1 54743U 22170C   25347.93308625  .00000009  00000+0  00000+0 0  9999", "line2": "2 54743   0.6882  23.8293 0001653 238.2122 156.4626  1.00269356 11128"}}, "geometry": {"type": "Point", "coordinates": [-56.869676129877305, -0.6903957105662072]}}, {"type": "Feature", "properties": {"norad_id": 55973, "name": "TIANMU-1 03", "group": "weather", "lat": -19.010311614912045, "lon": -31.291173408011687, "alt_km": 450.79263822322264, "timestamp": "2025-12-14T14:39:29.019228+00:00", "meta": {"OBJECT_NAME": "TIANMU-1 03", "OBJECT_ID": "2023-039A", "EPOCH": "2025-12-13T23:46:15.697344", "MEAN_MOTION": 15.40970934, "ECCENTRICITY": 0.00043563, "INCLINATION": 97.5105, "RA_OF_ASC_NODE": 150.6766, "ARG_OF_PERICENTER": 57.4316, "MEAN_ANOMALY": 302.7351, "EPHEMERIS_TYPE": 0, "CLASSIFICATION_TYPE": "U", "NORAD_CAT_ID": 55973, "ELEMENT_SET_NO": 999, "REV_AT_EPOCH": 15225, "BSTAR": 0.00041863645, "MEAN_MOTION_DOT": 0.0001718, "MEAN_MOTION_DDOT": 0}, "tle": {"line1": "1 55973U 23039A   25347.99045946  .00017180  00000+0  41864-3 0  9995", "line2": "2 55973  97.5105 150.6766 0004356  57.4316 302.7351 15.40970934152251"}}, "geometry": {"type": "Point", "coordinates": [-31.291173408011687, -19.010311614912045]}}, {"type": "Feature", "properties": {"norad_id": 55974, "name": "TIANMU-1 04", "group": "weather", "lat": -44.39475509205117, "lon": 157.91938299920344, "alt_km": 449.25848806895374, "timestamp": "2025-12-14T14:39:29.019240+00:00", "meta": {"OBJECT_NAME": "TIANMU-1 04", "OBJECT_ID": "2023-039B", "EPOCH": "2025-12-13T23:16:16.385376", "MEAN_MOTION": 15.41309941, "ECCENTRICITY": 0.00049924, "INCLINATION": 97.5038, "RA_OF_ASC_NODE": 149.8456, "ARG_OF_PERICENTER": 52.7621, "MEAN_ANOMALY": 307.408, "EPHEMERIS_TYPE": 0, "CLASSIFICATION_TYPE": "U", "NORAD_CAT_ID": 55974, "ELEMENT_SET_NO": 999, "REV_AT_EPOCH": 15225, "BSTAR": 0.00041804713, "MEAN_MOTION_DOT": 0.00017352, "MEAN_MOTION_DDOT": 0}, "tle": {"line1": "1 55974U 23039B   25347.96963409  .00017352  00000+0  41805-3 0  9992", "line2": "2 55974  97.5038 149.8456 0004992  52.7621 307.4080 15.41309941152252"}}, "geometry": {"type": "Point", "coordinates": [157.91938299920344, -44.39475509205117]}}, {"type": "Feature", "properties": {"norad_id": 55975, "name": "TIANMU-1 05", "group": "weather", "lat": -15.42955174929029, "lon": 153.08306699013255, "alt_km": 448.0644718347221, "timestamp": "2025-12-14T14:39:29.019250+00:00", "meta": {"OBJECT_NAME": "TIANMU-1 05", "OBJECT_ID": "2023-039C", "EPOCH": "2025-12-13T23:08:25.461312", "MEAN_MOTION": 15.40927245, "ECCENTRICITY": 0.00043294, "INCLINATION": 97.5084, "RA_OF_ASC_NODE": 150.3326, "ARG_OF_PERICENTER": 74.5827, "MEAN_ANOMALY": 285.5897, "EPHEMERIS_TYPE": 0, "CLASSIFICATION_TYPE": "U", "NORAD_CAT_ID": 55975, "ELEMENT_SET_NO": 999, "REV_AT_EPOCH": 15223, "BSTAR": 0.00041186102, "MEAN_MOTION_DOT": 0.00016876, "MEAN_MOTION_DDOT": 0}, "tle": {"line1": "1 55975U 23039C   25347.96418358  .00016876  00000+0  41186-3 0  9993", "line2": "2 55975  97.5084 150.3326 0004329  74.5827 285.5897 15.40927245152233"}}, "geometry": {"type": "Point", "coordinates": [153.08306699013255, -15.42955174929029]}}, {"type": "Feature", "properties": {"norad_id": 55976, "name": "TIANMU-1 06", "group": "weather", "lat": -55.82026876880129, "lon": 162.66463540976684, "alt_km": 450.901246096023, "timestamp": "2025-12-14T14:39:29.019261+00:00", "meta": {"OBJECT_NAME": "TIANMU-1 06", "OBJECT_ID": "2023-039D", "EPOCH": "2025-12-13T23:19:20.703360", "MEAN_MOTION": 15.41361228, "ECCENTRICITY": 0.00046105, "INCLINATION": 97.5096, "RA_OF_ASC_NODE": 150.8063, "ARG_OF_PERICENTER": 70.0507, "MEAN_ANOMALY": 290.1235, "EPHEMERIS_TYPE": 0, "CLASSIFICATION_TYPE": "U", "NORAD_CAT_ID": 55976, "ELEMENT_SET_NO": 999, "REV_AT_EPOCH": 15225, "BSTAR": 0.00038018206, "MEAN_MOTION_DOT": 0.00015795, "MEAN_MOTION_DDOT": 0}, "tle": {"line1": "1 55976U 23039D   25347.97176740  .00015795  00000+0  38018-3 0  9990", "line2": "2 55976  97.5096 150.8063 0004610  70.0507 290.1235 15.41361228152253"}}, "geometry": {"type": "Point", "coordinates": [162.66463540976684, -55.82026876880129]}}, {"type": "Feature", "properties": {"norad_id": 56232, "name": "FENGYUN 3G", "group": "weather", "lat": 41.20448084115088, "lon": -9.543558905630167, "alt_km": 394.8015143716366, "timestamp": "2025-12-14T14:39:29.019274+00:00", "meta": {"OBJECT_NAME": "FENGYUN 3G", "OBJECT_ID": "2023-055A", "EPOCH": "2025-12-14T00:15:00.776160", "MEAN_MOTION": 15.53744306, "ECCENTRICITY": 0.00093579, "INCLINATION": 49.9931, "RA_OF_ASC_NODE": 220.8976, "ARG_OF_PERICENTER": 154.278, "MEAN_ANOMALY": 205.8654, "EPHEMERIS_TYPE": 0, "CLASSIFICATION_TYPE": "U", "NORAD_CAT_ID": 56232, "ELEMENT_SET_NO": 999, "REV_AT_EPOCH": 15122, "BSTAR": 0.00051571157, "MEAN_MOTION_DOT": 0.00033436, "MEAN_MOTION_DDOT": 0}, "tle": {"line1": "1 56232U 23055A   25348.01042565  .00033436  00000+0  51571-3 0  9998", "line2": "2 56232  49.9931 220.8976 0009357 154.2780 205.8654 15.53744306151229"}}, "geometry": {"type": "Point", "coordinates": [-9.543558905630167, 41.20448084115088]}}, {"type": "Feature", "properties": {"norad_id": 57166, "name": "METEOR-M2 3", "group": "weather", "lat": 64.90639870131284, "lon": -118.94183550669051, "alt_km": 806.3494468619438, "timestamp": "2025-12-14T14:39:29.019285+00:00", "meta": {"OBJECT_NAME": "METEOR-M2 3", "OBJECT_ID": "2023-091A", "EPOCH": "2025-12-14T00:38:10.050144", "MEAN_MOTION": 14.2402622, "ECCENTRICITY": 0.00038335, "INCLINATION": 98.6377, "RA_OF_ASC_NODE": 41.5433, "ARG_OF_PERICENTER": 5.3009, "MEAN_ANOMALY": 354.821, "EPHEMERIS_TYPE": 0, "CLASSIFICATION_TYPE": "U", "NORAD_CAT_ID": 57166, "ELEMENT_SET_NO": 999, "REV_AT_EPOCH": 12816, "BSTAR": 2.7399273e-05, "MEAN_MOTION_DOT": 1.9e-07, "MEAN_MOTION_DDOT": 0}, "tle": {"line1": "1 57166U 23091A   25348.02650521  .00000019  00000+0  27399-4 0  9996", "line2": "2 57166  98.6377  41.5433 0003833   5.3009 354.8210 14.24026220128165"}}, "geometry": {"type": "Point", "coordinates": [-118.94183550669051, 64.90639870131284]}}, {"type": "Feature", "properties": {"norad_id": 57399, "name": "TIANMU-1 07", "group": "weather", "lat": -77.41616661111857, "lon": 73.40176641143853, "alt_km": 492.2990078022249, "timestamp": "2025-12-14T14:39:29.019297+00:00", "meta": {"OBJECT_NAME": "TIANMU-1 07", "OBJECT_ID": "2023-101A", "EPOCH": "2025-12-14T00:51:44.486784", "MEAN_MOTION": 15.28097463, "ECCENTRICITY": 0.00055445, "INCLINATION": 97.2882, "RA_OF_ASC_NODE": 37.8571, "ARG_OF_PERICENTER": 78.2491, "MEAN_ANOMALY": 281.9371, "EPHEMERIS_TYPE": 0, "CLASSIFICATION_TYPE": "U", "NORAD_CAT_ID": 57399, "ELEMENT_SET_NO": 999, "REV_AT_EPOCH": 13335, "BSTAR": 0.00032176607, "MEAN_MOTION_DOT": 8.748e-05, "MEAN_MOTION_DDOT": 0}, "tle": {"line1": "1 57399U 23101A   25348.03593156  .00008748  00000+0  32177-3 0  9993", "line2": "2 57399  97.2882  37.8571 0005544  78.2491 281.9371 15.28097463133352"}}, "geometry": {"type": "Point", "coordinates": [73.40176641143853, -77.41616661111857]}}, {"type": "Feature", "properties": {"norad_id": 57400, "name": "TIANMU-1 08", "group": "weather", "lat": 75.97258486710366, "lon": -110.97304122138716, "alt_km": 469.6329237098389, "timestamp": "2025-12-14T14:39:29.019308+00:00", "meta": {"OBJECT_NAME": "TIANMU-1 08", "OBJECT_ID": "2023-101B", "EPOCH": "2025-12-14T00:04:09.871392", "MEAN_MOTION": 15.2808084, "ECCENTRICITY": 0.00074992, "INCLINATION": 97.2871, "RA_OF_ASC_NODE": 37.6226, "ARG_OF_PERICENTER": 80.5522, "MEAN_ANOMALY": 279.6566, "EPHEMERIS_TYPE": 0, "CLASSIFICATION_TYPE": "U", "NORAD_CAT_ID": 57400, "ELEMENT_SET_NO": 999, "REV_AT_EPOCH": 13334, "BSTAR": 0.00030487121, "MEAN_MOTION_DOT": 8.283e-05, "MEAN_MOTION_DDOT": 0}, "tle": {"line1": "1 57400U 23101B   25348.00289203  .00008283  00000+0  30487-3 0  9994", "line2": "2 57400  97.2871  37.6226 0007499  80.5522 279.6566 15.28080840133340"}}, "geometry": {"type": "Point", "coordinates": [-110.97304122138716, 75.97258486710366]}}]}